[{"OBJECT_NAME":"CAS-2T & KS-1Q","OBJECT_ID":"2016-066G","EPOCH":"2026-03-09T16:58:07.740192","MEAN_MOTION":14.44469485,"ECCENTRICITY":0.03436678,"INCLINATION":98.388,"RA_OF_ASC_NODE":145.5568,"ARG_OF_PERICENTER":71.4405,"MEAN_ANOMALY":292.3791,"EPHEMERIS_TYPE":0,"CLASSIFICATION_TYPE":"U","NORAD_CAT_ID":41847,"ELEMENT_SET_NO":999,"REV_AT_EPOCH":49043,"BSTAR":0.00023398968,"MEAN_MOTION_DOT":1.617e-5,"MEAN_MOTION_DDOT":0},{"OBJECT_NAME":"COSMOS 516","OBJECT_ID":"1972-066A","EPOCH":"2026-03-09T09:37:18.640416","MEAN_MOTION":13.77807707,"ECCENTRICITY":0.00569463,"INCLINATION":64.8091,"RA_OF_ASC_NODE":87.8017,"ARG_OF_PERICENTER":134.2292,"MEAN_ANOMALY":226.346,"EPHEMERIS_TYPE":0,"CLASSIFICATION_TYPE":"U","NORAD_CAT_ID":6154,"ELEMENT_SET_NO":999,"REV_AT_EPOCH":69417,"BSTAR":1.6509786e-5,"MEAN_MOTION_DOT":-7.2e-7,"MEAN_MOTION_DDOT":0}]
